start=new Date('2022-07-08T00:00:00.000Z').valueOf();
sats=[{"COUNTRY_CODE":"US","NORAD_CAT_ID":"51969","ARG_OF_PERICENTER":"44.4205","PERIOD":"95.437","OBJECT_NAME":"STARLINK-3680","TLE_LINE2":"2 51969  53.2165 288.0689 0001818  44.4205 132.9328 15.08854403  1302","FILE":"3509470","MEAN_MOTION_DDOT":"0.0000000000000","TIME_SYSTEM":"UTC","MEAN_ANOMALY":"132.9328","EPOCH":"2022-07-07T22:00:00.999936","CENTER_NAME":"EARTH","SEMIMAJOR_AXIS":"6917.836","RCS_SIZE":"LARGE","DECAY_DATE":null,"OBJECT_TYPE":"PAYLOAD","MEAN_MOTION":"15.08854403","INCLINATION":"53.2165","MEAN_ELEMENT_THEORY":"SGP4","REF_FRAME":"TEME","EPHEMERIS_TYPE":"0","SITE":"AFETR","OBJECT_ID":"2022-025P","GP_ID":"207631755","MEAN_MOTION_DOT":"-0.00029575","APOAPSIS":"540.959","REV_AT_EPOCH":"130","ELEMENT_SET_NO":"999","LAUNCH_DATE":"2022-03-09","BSTAR":"-0.00184700000000","ECCENTRICITY":"0.00018180","TLE_LINE1":"1 51969U 22025P   22188.91667824 -.00029575  00000-0 -18470-2 0  9997","RA_OF_ASC_NODE":"288.0689","PERIAPSIS":"538.444","CLASSIFICATION_TYPE":"U"},{"EPHEMERIS_TYPE":"0","SITE":"AFETR","OBJECT_ID":"2022-025Q","APOAPSIS":"540.697","MEAN_MOTION_DOT":"-0.00032933","GP_ID":"207632483","MEAN_ELEMENT_THEORY":"SGP4","REF_FRAME":"TEME","RA_OF_ASC_NODE":"288.0661","PERIAPSIS":"538.640","CLASSIFICATION_TYPE":"U","REV_AT_EPOCH":"130","ELEMENT_SET_NO":"999","LAUNCH_DATE":"2022-03-09","BSTAR":"-0.00205920000000","TLE_LINE1":"1 51970U 22025Q   22188.91667824 -.00032933  00000-0 -20592-2 0  9999","ECCENTRICITY":"0.00014870","TLE_LINE2":"2 51970  53.2163 288.0661 0001487  51.7293 245.5715 15.08865163  1308","MEAN_MOTION_DDOT":"0.0000000000000","FILE":"3509470","TIME_SYSTEM":"UTC","COUNTRY_CODE":"US","NORAD_CAT_ID":"51970","ARG_OF_PERICENTER":"51.7293","PERIOD":"95.436","OBJECT_NAME":"STARLINK-3677","OBJECT_TYPE":"PAYLOAD","INCLINATION":"53.2163","MEAN_MOTION":"15.08865163","SEMIMAJOR_AXIS":"6917.803","CENTER_NAME":"EARTH","EPOCH":"2022-07-07T22:00:00.999936","MEAN_ANOMALY":"245.5715","RCS_SIZE":"LARGE","DECAY_DATE":null},{"OBJECT_ID":"2022-025R","GP_ID":"207631259","MEAN_MOTION_DOT":"-0.00028380","APOAPSIS":"541.039","EPHEMERIS_TYPE":"0","SITE":"AFETR","REF_FRAME":"TEME","MEAN_ELEMENT_THEORY":"SGP4","PERIAPSIS":"538.297","CLASSIFICATION_TYPE":"U","RA_OF_ASC_NODE":"288.0671","BSTAR":"-0.00177080000000","TLE_LINE1":"1 51971U 22025R   22188.91667824 -.00028380  00000-0 -17708-2 0  9996","ECCENTRICITY":"0.00019820","ELEMENT_SET_NO":"999","REV_AT_EPOCH":"130","LAUNCH_DATE":"2022-03-09","FILE":"3509470","MEAN_MOTION_DDOT":"0.0000000000000","TIME_SYSTEM":"UTC","TLE_LINE2":"2 51971  53.2149 288.0671 0001982  45.5934 171.7363 15.08865393  1301","ARG_OF_PERICENTER":"45.5934","PERIOD":"95.436","OBJECT_NAME":"STARLINK-3669","COUNTRY_CODE":"US","NORAD_CAT_ID":"51971","MEAN_MOTION":"15.08865393","INCLINATION":"53.2149","OBJECT_TYPE":"PAYLOAD","DECAY_DATE":null,"EPOCH":"2022-07-07T22:00:00.999936","CENTER_NAME":"EARTH","MEAN_ANOMALY":"171.7363","SEMIMAJOR_AXIS":"6917.803","RCS_SIZE":"LARGE"},{"OBJECT_ID":"2022-025S","MEAN_MOTION_DOT":"-0.00070263","GP_ID":"207632010","APOAPSIS":"540.758","EPHEMERIS_TYPE":"0","SITE":"AFETR","REF_FRAME":"TEME","MEAN_ELEMENT_THEORY":"SGP4","PERIAPSIS":"538.561","CLASSIFICATION_TYPE":"U","RA_OF_ASC_NODE":"288.0687","BSTAR":"-0.00443660000000","ECCENTRICITY":"0.00015880","TLE_LINE1":"1 51972U 22025S   22188.91667824 -.00070263  00000-0 -44366-2 0  9994","REV_AT_EPOCH":"130","ELEMENT_SET_NO":"999","LAUNCH_DATE":"2022-03-09","FILE":"3509470","MEAN_MOTION_DDOT":"0.0000000000000","TIME_SYSTEM":"UTC","TLE_LINE2":"2 51972  53.2155 288.0687 0001588  58.5990 258.7627 15.08868231  1307","PERIOD":"95.436","ARG_OF_PERICENTER":"58.5990","OBJECT_NAME":"STARLINK-3671","COUNTRY_CODE":"US","NORAD_CAT_ID":"51972","MEAN_MOTION":"15.08868231","INCLINATION":"53.2155","OBJECT_TYPE":"PAYLOAD","DECAY_DATE":null,"EPOCH":"2022-07-07T22:00:00.999936","CENTER_NAME":"EARTH","MEAN_ANOMALY":"258.7627","SEMIMAJOR_AXIS":"6917.794","RCS_SIZE":"LARGE"},{"NORAD_CAT_ID":"51973","COUNTRY_CODE":"US","OBJECT_NAME":"STARLINK-3679","PERIOD":"95.436","ARG_OF_PERICENTER":"48.8990","TLE_LINE2":"2 51973  53.2160 288.0705 0001611  48.8990 228.4162 15.08864379  1301","TIME_SYSTEM":"UTC","MEAN_MOTION_DDOT":"0.0000000000000","FILE":"3509470","RCS_SIZE":"LARGE","SEMIMAJOR_AXIS":"6917.806","CENTER_NAME":"EARTH","MEAN_ANOMALY":"228.4162","EPOCH":"2022-07-07T22:00:00.999936","DECAY_DATE":null,"OBJECT_TYPE":"PAYLOAD","INCLINATION":"53.2160","MEAN_MOTION":"15.08864379","MEAN_ELEMENT_THEORY":"SGP4","REF_FRAME":"TEME","SITE":"AFETR","EPHEMERIS_TYPE":"0","APOAPSIS":"540.785","MEAN_MOTION_DOT":"-0.00031834","GP_ID":"207632256","OBJECT_ID":"2022-025T","LAUNCH_DATE":"2022-03-09","REV_AT_EPOCH":"130","ELEMENT_SET_NO":"999","ECCENTRICITY":"0.00016110","TLE_LINE1":"1 51973U 22025T   22188.91667824 -.00031834  00000-0 -19896-2 0  9996","BSTAR":"-0.00198960000000","RA_OF_ASC_NODE":"288.0705","CLASSIFICATION_TYPE":"U","PERIAPSIS":"538.556"},{"BSTAR":"-0.00209390000000","ECCENTRICITY":"0.00016500","TLE_LINE1":"1 51974U 22025U   22188.91667824 -.00033477  00000-0 -20939-2 0  9992","REV_AT_EPOCH":"130","ELEMENT_SET_NO":"999","LAUNCH_DATE":"2022-03-09","PERIAPSIS":"538.541","CLASSIFICATION_TYPE":"U","RA_OF_ASC_NODE":"288.0790","REF_FRAME":"TEME","MEAN_ELEMENT_THEORY":"SGP4","OBJECT_ID":"2022-025U","MEAN_MOTION_DOT":"-0.00033477","GP_ID":"207631983","APOAPSIS":"540.824","EPHEMERIS_TYPE":"0","SITE":"AFETR","DECAY_DATE":null,"MEAN_ANOMALY":"290.1950","CENTER_NAME":"EARTH","EPOCH":"2022-07-07T22:00:00.999936","SEMIMAJOR_AXIS":"6917.818","RCS_SIZE":"LARGE","MEAN_MOTION":"15.08860442","INCLINATION":"53.2139","OBJECT_TYPE":"PAYLOAD","PERIOD":"95.436","ARG_OF_PERICENTER":"47.1262","OBJECT_NAME":"STARLINK-3672","COUNTRY_CODE":"US","NORAD_CAT_ID":"51974","FILE":"3509470","MEAN_MOTION_DDOT":"0.0000000000000","TIME_SYSTEM":"UTC","TLE_LINE2":"2 51974  53.2139 288.0790 0001650  47.1262 290.1950 15.08860442  1307"},{"APOAPSIS":"540.728","MEAN_MOTION_DOT":"-0.00081050","GP_ID":"207630759","OBJECT_ID":"2022-025V","SITE":"AFETR","EPHEMERIS_TYPE":"0","REF_FRAME":"TEME","MEAN_ELEMENT_THEORY":"SGP4","CLASSIFICATION_TYPE":"U","PERIAPSIS":"538.522","RA_OF_ASC_NODE":"288.0705","ECCENTRICITY":"0.00015940","TLE_LINE1":"1 51975U 22025V   22188.91667824 -.00081050  00000-0 -51267-2 0  9991","BSTAR":"-0.00512670000000","LAUNCH_DATE":"2022-03-09","REV_AT_EPOCH":"130","ELEMENT_SET_NO":"999","TIME_SYSTEM":"UTC","MEAN_MOTION_DDOT":"0.0000000000000","FILE":"3509470","TLE_LINE2":"2 51975  53.2161 288.0705 0001594  54.4821 277.6571 15.08879437  1301","OBJECT_NAME":"STARLINK-3674","ARG_OF_PERICENTER":"54.4821","PERIOD":"95.435","NORAD_CAT_ID":"51975","COUNTRY_CODE":"US","INCLINATION":"53.2161","MEAN_MOTION":"15.08879437","OBJECT_TYPE":"PAYLOAD","DECAY_DATE":null,"RCS_SIZE":"LARGE","SEMIMAJOR_AXIS":"6917.760","EPOCH":"2022-07-07T22:00:00.999936","CENTER_NAME":"EARTH","MEAN_ANOMALY":"277.6571"},{"TLE_LINE2":"2 51976  53.2200 298.0768 0001739  41.0241 301.3145 15.08852152  1302","TIME_SYSTEM":"UTC","MEAN_MOTION_DDOT":"0.0000000000000","FILE":"3509470","NORAD_CAT_ID":"51976","COUNTRY_CODE":"US","OBJECT_NAME":"STARLINK-3663","ARG_OF_PERICENTER":"41.0241","PERIOD":"95.437","OBJECT_TYPE":"PAYLOAD","INCLINATION":"53.2200","MEAN_MOTION":"15.08852152","RCS_SIZE":"LARGE","SEMIMAJOR_AXIS":"6917.843","EPOCH":"2022-07-07T22:00:00.999936","MEAN_ANOMALY":"301.3145","CENTER_NAME":"EARTH","DECAY_DATE":null,"SITE":"AFETR","EPHEMERIS_TYPE":"0","APOAPSIS":"540.911","MEAN_MOTION_DOT":"-0.00029525","GP_ID":"207631510","OBJECT_ID":"2022-025W","MEAN_ELEMENT_THEORY":"SGP4","REF_FRAME":"TEME","RA_OF_ASC_NODE":"298.0768","CLASSIFICATION_TYPE":"U","PERIAPSIS":"538.505","LAUNCH_DATE":"2022-03-09","REV_AT_EPOCH":"130","ELEMENT_SET_NO":"999","ECCENTRICITY":"0.00017390","TLE_LINE1":"1 51976U 22025W   22188.91667824 -.00029525  00000-0 -18440-2 0  9997","BSTAR":"-0.00184400000000"},{"OBJECT_TYPE":"PAYLOAD","INCLINATION":"53.2161","MEAN_MOTION":"15.08862455","SEMIMAJOR_AXIS":"6917.812","EPOCH":"2022-07-07T22:00:00.999936","CENTER_NAME":"EARTH","MEAN_ANOMALY":"291.6274","RCS_SIZE":"LARGE","DECAY_DATE":null,"TLE_LINE2":"2 51977  53.2161 278.0912 0001496  60.6594 291.6274 15.08862455  1307","MEAN_MOTION_DDOT":"0.0000000000000","FILE":"3509470","TIME_SYSTEM":"UTC","COUNTRY_CODE":"US","NORAD_CAT_ID":"51977","ARG_OF_PERICENTER":"60.6594","PERIOD":"95.436","OBJECT_NAME":"STARLINK-3660","RA_OF_ASC_NODE":"278.0912","PERIAPSIS":"538.642","CLASSIFICATION_TYPE":"U","REV_AT_EPOCH":"130","ELEMENT_SET_NO":"999","LAUNCH_DATE":"2022-03-09","BSTAR":"-0.00204830000000","ECCENTRICITY":"0.00014960","TLE_LINE1":"1 51977U 22025X   22188.91667824 -.00032759  00000-0 -20483-2 0  9991","EPHEMERIS_TYPE":"0","SITE":"AFETR","OBJECT_ID":"2022-025X","APOAPSIS":"540.712","GP_ID":"207631756","MEAN_MOTION_DOT":"-0.00032759","MEAN_ELEMENT_THEORY":"SGP4","REF_FRAME":"TEME"},{"RCS_SIZE":"LARGE","CENTER_NAME":"EARTH","EPOCH":"2022-07-07T22:00:00.999936","MEAN_ANOMALY":"345.0502","SEMIMAJOR_AXIS":"6917.833","DECAY_DATE":null,"OBJECT_TYPE":"PAYLOAD","MEAN_MOTION":"15.08855381","INCLINATION":"53.2135","NORAD_CAT_ID":"51978","COUNTRY_CODE":"US","OBJECT_NAME":"STARLINK-3666","ARG_OF_PERICENTER":"57.2697","PERIOD":"95.437","TLE_LINE2":"2 51978  53.2135 298.0783 0001313  57.2697 345.0502 15.08855381  1309","TIME_SYSTEM":"UTC","FILE":"3509470","MEAN_MOTION_DDOT":"0.0000000000000","LAUNCH_DATE":"2022-03-09","REV_AT_EPOCH":"130","ELEMENT_SET_NO":"999","ECCENTRICITY":"0.00013130","TLE_LINE1":"1 51978U 22025Y   22188.91667824 -.00026393  00000-0 -16456-2 0  9994","BSTAR":"-0.00164560000000","RA_OF_ASC_NODE":"298.0783","CLASSIFICATION_TYPE":"U","PERIAPSIS":"538.790","MEAN_ELEMENT_THEORY":"SGP4","REF_FRAME":"TEME","SITE":"AFETR","EPHEMERIS_TYPE":"0","MEAN_MOTION_DOT":"-0.00026393","GP_ID":"207632484","APOAPSIS":"540.607","OBJECT_ID":"2022-025Y"}];
